{
    "links": {
        "self": "http://www.neowsapp.com/rest/v1/neo/3634441?api_key=iIulBulltgU6a56xZRHN4H3l9WmuAYTsLGpBGhQ2"
    },
    "id": "3634441",
    "neo_reference_id": "3634441",
    "name": "(2013 GB55)",
    "designation": "2013 GB55",
    "nasa_jpl_url": "http://ssd.jpl.nasa.gov/sbdb.cgi?sstr=3634441",
    "absolute_magnitude_h": 25.8,
    "estimated_diameter": {
        "kilometers": {
            "estimated_diameter_min": 0.0183888672,
            "estimated_diameter_max": 0.0411187571
        },
        "meters": {
            "estimated_diameter_min": 18.388867207,
            "estimated_diameter_max": 41.1187571041
        },
        "miles": {
            "estimated_diameter_min": 0.0114263088,
            "estimated_diameter_max": 0.0255500032
        },
        "feet": {
            "estimated_diameter_min": 60.3309310875,
            "estimated_diameter_max": 134.9040630575
        }
    },
    "is_potentially_hazardous_asteroid": false,
    "close_approach_data": [
        {
            "close_approach_date": "2013-04-12",
            "close_approach_date_full": "2013-Apr-12 19:56",
            "epoch_date_close_approach": 1365796560000,
            "relative_velocity": {
                "kilometers_per_second": "8.0816797661",
                "kilometers_per_hour": "29094.0471578949",
                "miles_per_hour": "18077.9094687486"
            },
            "miss_distance": {
                "astronomical": "0.0251743381",
                "lunar": "9.7928175209",
                "kilometers": "3766027.358419847",
                "miles": "2340100.8886020086"
            },
            "orbiting_body": "Earth"
        },
        {
            "close_approach_date": "2199-06-12",
            "close_approach_date_full": "2199-Jun-12 19:29",
            "epoch_date_close_approach": 7240649340000,
            "relative_velocity": {
                "kilometers_per_second": "20.0906998138",
                "kilometers_per_hour": "72326.5193296159",
                "miles_per_hour": "44940.8864134494"
            },
            "miss_distance": {
                "astronomical": "0.4692031897",
                "lunar": "182.5200407933",
                "kilometers": "70191797.776325939",
                "miles": "43615160.6763343982"
            },
            "orbiting_body": "Earth"
        }
    ],
    "orbital_data": {
        "orbit_id": "7",
        "orbit_determination_date": "2017-04-06 08:46:12",
        "first_observation_date": "2013-04-10",
        "last_observation_date": "2013-04-14",
        "data_arc_in_days": 4,
        "observations_used": 22,
        "orbit_uncertainty": "8",
        "minimum_orbit_intersection": ".0251442",
        "jupiter_tisserand_invariant": "3.622",
        "epoch_osculation": "2456394.5",
        "eccentricity": ".4967764840614909",
        "semi_major_axis": "2.042290693615288",
        "inclination": "9.024825771926334",
        "ascending_node_longitude": "22.75311170662051",
        "orbital_period": "1066.043102115885",
        "perihelion_distance": "1.027728703409582",
        "perihelion_argument": "178.851668107713",
        "aphelion_distance": "3.056852683820995",
        "perihelion_time": "2456394.199377353268",
        "mean_anomaly": ".1015194907304559",
        "mean_motion": ".3376974151284043",
        "equinox": "J2000",
        "orbit_class": {
            "orbit_class_type": "AMO",
            "orbit_class_description": "Near-Earth asteroid orbits similar to that of 1221 Amor",
            "orbit_class_range": "1.017 AU < q (perihelion) < 1.3 AU"
        }
    },
    "is_sentry_object": false
}